0 COSMOS 2070
1 20555U 90029G   13281.41660399  .00000026  00000-0  26942-3 0  2414
2 20555 073.9801 269.8300 0012586 106.2409 003.7737 12.52733683 75222
0 COSMOS 2070
1 20555U 90029G   13283.42567065  .00000003  00000-0  12246-3 0  2421
2 20555 073.9802 267.1383 0012578 103.0926 064.4696 12.52733993 75474
0 COSMOS 2070
1 20555U 90029G   13286.13111664 -.00000040  00000-0 -15297-3 0  2435
2 20555 073.9805 263.5134 0012579 098.7558 025.8683 12.52734313 75815
0 COSMOS 2070
1 20555U 90029G   13288.37659513 -.00000032  00000-0 -99261-4 0  2449
2 20555 073.9810 260.5047 0012603 095.0897 072.9105 12.52734225 76090
0 COSMOS 2070
1 20555U 90029G   13290.66692862 -.00000001  00000-0  93959-4 0  2452
2 20555 073.9815 257.4362 0012624 091.4421 322.1565 12.52734022 76383
0 COSMOS 2070
1 20555U 90029G   13292.82929198  .00000014  00000-0  19368-3 0  2462
2 20555 073.9817 254.5394 0012620 088.0333 354.2290 12.52733850 76657
0 COSMOS 2070
1 20555U 90029G   13295.06310360  .00000008  00000-0  15353-3 0  2470
2 20555 073.9818 251.5471 0012635 084.4551 348.5823 12.52733969 76939
